OPTICUBE 04             
1 41851U 16067D   19042.19509961  .00000180  00000-0  21070-4 0  9998
2 41851  97.9151 138.3047 0010212  91.2046 269.0345 14.96755961122846
AEROCUBE 8D             
1 41852U 16067E   19041.92137075  .00000094  00000-0  13563-4 0  9994
2 41852  97.9165 137.8550 0010880  91.6922 268.5545 14.96634827122789
AEROCUBE 8C             
1 41853U 16067F   19042.20869256  .00000748  00000-0  70945-4 0  9993
2 41853  97.9168 138.0915 0011643  92.2364 268.0190 14.96602124122827
PROMETHEUS 2-1          
1 41854U 16067G   19042.19273010  .00000354  00000-0  36249-4 0  9991
2 41854  97.9169 138.1572 0011582  92.2394 268.0153 14.96775704122828
PROMETHEUS 2-3          
1 41855U 16067H   19042.26227398  .00000441  00000-0  43799-4 0  9993
2 41855  97.9172 138.2386 0011821  92.4159 267.8416 14.96777757122834
INS-1B                  
1 41954U 17008G   19042.22987763  .00001024  00000-0  45705-4 0  9991
2 41954  97.4166 108.8630 0008100 226.6215 133.4348 15.23605515110390
BGUSAT                  
1 41999U 17008BD  19042.25451258  .00001772  00000-0  72683-4 0  9993
2 41999  97.4226 110.7474 0006844 242.8428 117.2113 15.25555259109864
DIDO-2                  
1 42000U 17008BE  19042.48159978  .00000758  00000-0  34586-4 0  9999
2 42000  97.4181 109.6362 0007058 247.2758 112.7733 15.23651900109837
PEASSS                  
1 42015U 17008BV  19042.65422462  .00000920  00000-0  40285-4 0  9999
2 42015  97.4183 110.5744 0004893 252.3055 107.7649 15.24551729110393
AL-FARABI 1             
1 42016U 17008BW  19041.91496353  .00001250  00000-0  52830-4 0  9994
2 42016  97.4196 110.2454 0004750 255.1130 104.9581 15.25101415110422
NAYIF-1 (EO-88)         
1 42017U 17008BX  19042.62679656  .00001205  00000-0  50968-4 0  9993
2 42017  97.4193 110.9598 0004735 251.9578 108.1144 15.25132176110552
HAVELSAT                
1 42700U 98067LH  19042.54342887  .00332484  61259-4  47684-3 0  9993
2 42700  51.6192 191.3651 0004474 314.3508  45.7137 16.04882727 99907
CXBN-2                  
1 42704U 98067LM  19042.58277272  .00313890  55082-4  47612-3 0  9994
2 42704  51.6224 193.2272 0004974 312.8131  47.2462 16.03965342 99808
PHOENIX                 
1 42706U 98067LP  19042.82964985  .00055574  00000-0  24199-3 0  9990
2 42706  51.6259 203.3425 0001146 323.8795  36.2130 15.84209095 99687
QBEE50-LTU-OC           
1 42708U 98067LR  19042.57354784  .00360980  70931-4  50136-3 0  9998
2 42708  51.6180 192.3415 0005182 311.6720  48.3848 16.05386135 99758
ALTAIR PATHFINDER       
1 42711U 98067LS  19042.68802607  .00020927  00000-0  15661-3 0  9990
2 42711  51.6321 224.3940 0002483  13.1219 346.9844 15.72632561 99052
SHARC                   
1 42712U 98067LT  19042.65757105  .00067847  00000-0  33119-3 0  9990
2 42712  51.6301 220.4431 0000738 276.4783  83.6135 15.81693716 99343
ZA-AEROSAT              
1 42713U 98067LU  19042.83454733  .00051297  00000-0  24323-3 0  9991
2 42713  51.6323 208.7114 0001390 340.4429  19.6520 15.82432241 99273
CSUNSAT1                
1 42715U 98067LW  19042.83500234  .00065108  00000-0  26800-3 0  9999
2 42715  51.6294 205.6854 0002023 344.6376  15.4566 15.85321192 99314
SPACECUBE               
1 42717U 98067LY  19042.63780958  .00314779  55412-4  47433-3 0  9999
2 42717  51.6131 192.6505 0004432 312.1861  47.8774 16.04079211 98839
NJUST-1                 
1 42722U 98067MB  19042.65615944  .00041820  00000-0  23025-3 0  9993
2 42722  51.6370 214.1522 0003050  66.6743  28.3846 15.79262122 98250
LILACSAT-1 (LO-90)      
1 42725U 98067ME  19042.74385270  .00127719  17300-4  37454-3 0  9990
2 42725  51.6302 200.9714 0001502 339.3205 150.7955 15.92529059 98348
NSIGHT                  
1 42726U 98067MF  19042.88737896  .00014376  00000-0  14059-3 0  9996
2 42726  51.6368 234.9190 0004771  58.5502 301.5959 15.66419791 97911
SNUSAT-1B               
1 42727U 98067MG  19042.82774892  .00113877  15983-4  35011-3 0  9995
2 42727  51.6264 200.9531 0002685 345.5420  14.5509 15.91678053 98312
SNUSAT-1                
1 42733U 98067MN  19042.83979477  .00173498  23223-4  39616-3 0  9995
2 42733  51.6229 196.4563 0003796 327.6668  32.4107 15.97043430 98261
BEEAGLESAT              
1 42736U 98067MR  19042.86583336  .00073834  00000-0  28508-3 0  9991
2 42736  51.6283 204.3050 0001774  54.0167 306.1001 15.86594268 98221
UCLSAT                  
1 42765U 17036A   19042.10561273  .00001034  00000-0  47710-4 0  9993
2 42765  97.3697 102.7428 0010513 325.1091  34.9455 15.22417195 91054
LITUANICASAT-2          
1 42768U 17036D   19041.75128748  .00001658  00000-0  74912-4 0  9998
2 42768  97.3725 101.9527 0014009 313.7332  46.2744 15.22267240 90842
AALTO-1                 
1 42775U 17036L   19042.44669360  .00000611  00000-0  30505-4 0  9991
2 42775  97.3686 102.1066 0012774 311.1233  48.8899 15.21118000 90865
URSA MAIOR              
1 42776U 17036M   19042.22049238  .00000671  00000-0  33080-4 0  9991
2 42776  97.3694 101.9941 0012587 312.0084  48.0079 15.21235061 90836
COMPASS 2               
1 42777U 17036N   19041.91344466  .00001359  00000-0  61657-4 0  9993
2 42777  97.3726 102.5457 0011405 315.6078  44.4243 15.22463850 90824
DIAMOND RED             
1 42783U 17036U   19041.84449695  .00000855  00000-0  40521-4 0  9999
2 42783  97.3698 102.1875 0011196 326.2223  33.8298 15.21928392 90802
PEGASUS                 
1 42784U 17036V   19041.91245345  .00000942  00000-0  43991-4 0  9995
2 42784  97.3701 102.4147 0011086 325.7762  34.2759 15.22187927 90824
DIAMOND GREEN           
1 42785U 17036W   19042.10627961  .00000818  00000-0  38915-4 0  9998
2 42785  97.3699 102.4641 0011070 325.9507  34.1018 15.21928095 90838
DIAMOND BLUE            
1 42786U 17036X   19042.36827809  .00000760  00000-0  36351-4 0  9998
2 42786  97.3700 102.7202 0010906 325.3121  34.7403 15.21928570 90877
NUDTSAT                 
1 42787U 17036Y   19042.11609367  .00001425  00000-0  63481-4 0  9992
2 42787  97.3735 103.0973 0011967 326.2219  33.8262 15.23001733 90723
SUCHAI                  
1 42788U 17036Z   19042.14911096  .00001085  00000-0  49735-4 0  9999
2 42788  97.3704 102.8647 0010636 324.5208  35.5320 15.22547410 90940
SKCUBE                  
1 42789U 17036AA  19041.82891062  .00001070  00000-0  49165-4 0  9995
2 42789  97.3701 102.5165 0010521 325.8864  34.1695 15.22470816 90816
VZLUSAT-1               
1 42790U 17036AB  19041.90615369  .00001399  00000-0  62412-4 0  9994
2 42790  97.3712 102.8952 0010087 325.2391  34.8186 15.23012007 90843
ROBUSTA-1B              
1 42792U 17036AD  19042.82493150  .00001102  00000-0  50335-4 0  9993
2 42792  97.3722 103.6108 0011549 324.6584  35.3647 15.22632291 90984
CICERO 6                
1 42793U 17036AE  19042.59274249  .00000684  00000-0  32666-4 0  9995
2 42793  97.3687 103.2608 0009335 326.4582  33.6062 15.22330141 91010
D-SAT                   
1 42794U 17036AF  19042.36913273  .00000154  00000-0  18925-4 0  9992
2 42794  97.5591  92.5466 0126184 205.3256 154.1744 14.91017785 89366
TOKI                    
1 42820U 98067MU  19042.54521930  .00063146  00000-0  26376-3 0  9998
2 42820  51.6289 210.4709 0001538 316.7614  43.3269 15.85028781 91571
MAZAALAI (NUMSAT-1)     
1 42822U 98067MW  19042.66005879  .00059661  00000-0  26329-3 0  9997
2 42822  51.6307 211.2767 0001423 334.7157  25.3776 15.83897618 91554
BRAC ONNESHA            
1 42823U 98067MX  19042.49200818  .00060541  00000-0  25984-3 0  9994
2 42823  51.6278 211.6456 0002389 355.8412   4.2571 15.84475907 91532
NIGERIAEDUSAT-1         
1 42824U 98067MY  19042.83049547  .00061085  00000-0  27218-3 0  9999
2 42824  51.6311 210.9757 0002214  13.1272 346.9788 15.83683589 91567
CORVUS BC2              
1 42846U 17042X   19041.78015093  .00000173  00000-0  22358-4 0  9991
2 42846  97.5801 300.7705 0010973 117.2358 242.9980 14.91919699 85943
CORVUS BC1              
1 42847U 17042Y   19042.68085803  .00000086  00000-0  13753-4 0  9990
2 42847  97.5800 301.7228 0010630 114.0350 246.1983 14.92020148 86078
SILU-1 (SILKROAD 1)     
1 42903U 17021F   19042.76704065  .00089042  11141-4  26269-3 0  9993
2 42903  42.7702 300.2487 0017296 221.0936 244.0632 15.91951470 87811
MIRATA                  
1 43015U 17073C   19042.20860283  .00000622  00000-0  54602-4 0  9997
2 43015  97.7177 328.4259 0255459 212.8864 145.6232 14.78691632 66458
MAKERSAT 0              
1 43016U 17073D   19042.20515977  .00000407  00000-0  37620-4 0  9997
2 43016  97.7211 328.6062 0257383 213.0794 145.4094 14.78529955 66446
ASTERIA                 
1 43020U 98067NH  19042.58715030  .00008241  00000-0  85760-4 0  9999
2 43020  51.6410 246.5377 0001878   5.5267 354.5748 15.65569191 69910
DELLINGR (RBLE)         
1 43021U 98067NJ  19042.58907635  .00006271  00000-0  79563-4 0  9999
2 43021  51.6379 253.2237 0001774 354.8282   5.2693 15.60896832 69826
OSIRIS-3U               
1 43027U 98067NL  19042.56494374  .00217243  29532-4  54860-3 0  9994
2 43027  51.6314 220.4873 0004486 282.6910  77.3596 15.95120686 70135
AEROCUBE 7B             
1 43042U 17071F   19042.18390857  .00002646  00000-0  74383-4 0  9993
2 43042  51.6393 315.9100 0005397  58.8086 301.3427 15.40345399 66421
AEROCUBE 7C             
1 43043U 17071G   19041.92453213  .00002564  00000-0  72412-4 0  9991
2 43043  51.6397 317.1895 0005485  59.3060 300.8464 15.40340404 66356
CHEFSAT                 
1 43044U 17071H   19042.62459990  .00005210  00000-0  12839-3 0  9995
2 43044  51.6394 310.6903 0005330  62.4685 297.6842 15.42301653 66504
ASGARDIA 1              
1 43049U 17071N   19041.95156942  .00003013  00000-0  83019-4 0  9994
2 43049  51.6400 316.6379 0003138  77.8743 282.2593 15.40450354 66367
ISARA                   
1 43050U 17071P   19041.95483733  .00005295  00000-0  13206-3 0  9991
2 43050  51.6389 314.4410 0003007  76.7332 283.3989 15.41898106 66390
